[{"OBJECT_NAME":"ONEWEB-0605","OBJECT_ID":"2022-166AD","EPOCH":"2026-03-09T21:35:45.016512","MEAN_MOTION":13.21823945,"ECCENTRICITY":0.00012807,"INCLINATION":87.9165,"RA_OF_ASC_NODE":263.7862,"ARG_OF_PERICENTER":70.3261,"MEAN_ANOMALY":289.8011,"EPHEMERIS_TYPE":0,"CLASSIFICATION_TYPE":"U","NORAD_CAT_ID":54669,"ELEMENT_SET_NO":999,"REV_AT_EPOCH":15839,"BSTAR":-0.00019933654,"MEAN_MOTION_DOT":-6.9e-7,"MEAN_MOTION_DDOT":0},{"OBJECT_NAME":"SL-6 DEB","OBJECT_ID":"1980-063F","EPOCH":"2026-03-08T06:32:56.363712","MEAN_MOTION":2.05116896,"ECCENTRICITY":0.72214528,"INCLINATION":63.5987,"RA_OF_ASC_NODE":17.366,"ARG_OF_PERICENTER":280.8706,"MEAN_ANOMALY":335.6868,"EPHEMERIS_TYPE":0,"CLASSIFICATION_TYPE":"U","NORAD_CAT_ID":48262,"ELEMENT_SET_NO":999,"REV_AT_EPOCH":9209,"BSTAR":0.0010175708,"MEAN_MOTION_DOT":-1.216e-5,"MEAN_MOTION_DDOT":0}]
